{
    "links": {
        "self": "http://www.neowsapp.com/rest/v1/neo/3577116?api_key=iIulBulltgU6a56xZRHN4H3l9WmuAYTsLGpBGhQ2"
    },
    "id": "3577116",
    "neo_reference_id": "3577116",
    "name": "(2011 QD50)",
    "designation": "2011 QD50",
    "nasa_jpl_url": "http://ssd.jpl.nasa.gov/sbdb.cgi?sstr=3577116",
    "absolute_magnitude_h": 23.9,
    "estimated_diameter": {
        "kilometers": {
            "estimated_diameter_min": 0.04411182,
            "estimated_diameter_max": 0.0986370281
        },
        "meters": {
            "estimated_diameter_min": 44.1118199997,
            "estimated_diameter_max": 98.6370281305
        },
        "miles": {
            "estimated_diameter_min": 0.0274098057,
            "estimated_diameter_max": 0.0612901888
        },
        "feet": {
            "estimated_diameter_min": 144.7238235278,
            "estimated_diameter_max": 323.6123073718
        }
    },
    "is_potentially_hazardous_asteroid": false,
    "close_approach_data": [
        {
            "close_approach_date": "2011-08-27",
            "close_approach_date_full": "2011-Aug-27 01:54",
            "epoch_date_close_approach": 1314410040000,
            "relative_velocity": {
                "kilometers_per_second": "18.5503890006",
                "kilometers_per_hour": "66781.4004021107",
                "miles_per_hour": "41495.3651554115"
            },
            "miss_distance": {
                "astronomical": "0.0223669629",
                "lunar": "8.7007485681",
                "kilometers": "3346050.008209023",
                "miles": "2079139.0641415974"
            },
            "orbiting_body": "Earth"
        },
        {
            "close_approach_date": "2068-01-12",
            "close_approach_date_full": "2068-Jan-12 09:35",
            "epoch_date_close_approach": 3093586500000,
            "relative_velocity": {
                "kilometers_per_second": "26.9583491419",
                "kilometers_per_hour": "97050.056910683",
                "miles_per_hour": "60303.1311954186"
            },
            "miss_distance": {
                "astronomical": "0.291517103",
                "lunar": "113.400153067",
                "kilometers": "43610337.67737061",
                "miles": "27098207.272150018"
            },
            "orbiting_body": "Earth"
        },
        {
            "close_approach_date": "2108-02-06",
            "close_approach_date_full": "2108-Feb-06 07:30",
            "epoch_date_close_approach": 4357956600000,
            "relative_velocity": {
                "kilometers_per_second": "12.7005476835",
                "kilometers_per_hour": "45721.9716607465",
                "miles_per_hour": "28409.8551133122"
            },
            "miss_distance": {
                "astronomical": "0.1962217061",
                "lunar": "76.3302436729",
                "kilometers": "29354349.280326007",
                "miles": "18239946.8452206166"
            },
            "orbiting_body": "Earth"
        },
        {
            "close_approach_date": "2186-12-27",
            "close_approach_date_full": "2186-Dec-27 17:53",
            "epoch_date_close_approach": 6847523580000,
            "relative_velocity": {
                "kilometers_per_second": "16.2938482325",
                "kilometers_per_hour": "58657.8536370248",
                "miles_per_hour": "36447.7091112947"
            },
            "miss_distance": {
                "astronomical": "0.0388192204",
                "lunar": "15.1006767356",
                "kilometers": "5807272.686900548",
                "miles": "3608471.9205736424"
            },
            "orbiting_body": "Venus"
        }
    ],
    "orbital_data": {
        "orbit_id": "7",
        "orbit_determination_date": "2017-04-06 08:52:55",
        "first_observation_date": "2011-08-31",
        "last_observation_date": "2011-09-04",
        "data_arc_in_days": 4,
        "observations_used": 48,
        "orbit_uncertainty": "8",
        "minimum_orbit_intersection": ".0197875",
        "jupiter_tisserand_invariant": "4.996",
        "epoch_osculation": "2455806.5",
        "eccentricity": ".5585401757219788",
        "semi_major_axis": "1.240912518488321",
        "inclination": "7.859653840766469",
        "ascending_node_longitude": "144.8731994771991",
        "orbital_period": "504.9055860660558",
        "perihelion_distance": ".5478130223562511",
        "perihelion_argument": "82.29213512727068",
        "aphelion_distance": "1.934012014620391",
        "perihelion_time": "2455744.461577133586",
        "mean_anomaly": "44.23368021320951",
        "mean_motion": ".7130045892439422",
        "equinox": "J2000",
        "orbit_class": {
            "orbit_class_type": "APO",
            "orbit_class_description": "Near-Earth asteroid orbits which cross the Earth’s orbit similar to that of 1862 Apollo",
            "orbit_class_range": "a (semi-major axis) > 1.0 AU; q (perihelion) < 1.017 AU"
        }
    },
    "is_sentry_object": false
}